OBJECT B                
1 51825U 22019B   25016.89440427  .00022971  00000+0  73504-3 0  9999
2 51825  97.4046  92.8002 0011397 198.8058 161.2764 15.32353184159832
